OBJECT_NAME,OBJECT_ID,EPOCH,MEAN_MOTION,ECCENTRICITY,INCLINATION,RA_OF_ASC_NODE,ARG_OF_PERICENTER,MEAN_ANOMALY,EPHEMERIS_TYPE,CLASSIFICATION_TYPE,NORAD_CAT_ID,ELEMENT_SET_NO,REV_AT_EPOCH,BSTAR,MEAN_MOTION_DOT,MEAN_MOTION_DDOT
GSAT0215 (GALILEO 19),2017-079A,2026-06-05T06:48:55.141056,1.70474505,.0003193,55.0765,221.8347,260.5269,99.5253,0,U,43055,999,5278,0,.41E-6,0
GSAT0216 (GALILEO 20),2017-079B,2026-06-04T09:38:50.502624,1.70474899,.00041628,55.0770,221.8588,276.7209,83.3228,0,U,43056,999,5278,0,.41E-6,0
GSAT0217 (GALILEO 21),2017-079C,2026-06-05T05:01:26.932800,1.70474543,.0003552,55.0745,221.8343,289.0244,71.0257,0,U,43057,999,5278,0,.41E-6,0
GSAT0218 (GALILEO 22),2017-079D,2026-06-04T20:13:40.751328,1.70474845,.0004007,55.0752,221.8422,273.6920,86.3519,0,U,43058,999,5280,0,.41E-6,0
BEIDOU-3 M7 (C27),2018-003A,2026-06-05T12:53:50.997984,1.86228463,.0005055,54.3388,302.7211,90.7747,269.2724,0,U,43107,999,5713,0,-.56E-6,0
BEIDOU-3 M8 (C28),2018-003B,2026-06-04T22:41:21.932736,1.86231411,.0002322,54.3323,302.7237,267.2927,92.6681,0,U,43108,999,5713,0,-.58E-6,0
BEIDOU-3 M4 (C22),2018-018A,2026-06-05T09:19:07.699584,1.86231503,.0007631,56.6406,63.5380,14.1827,345.8659,0,U,43207,999,5652,0,-.38E-6,0
BEIDOU-3 M3 (C21),2018-018B,2026-06-04T22:01:37.914816,1.86231395,.00089929,56.6402,63.5572,337.7368,22.2504,0,U,43208,999,5651,0,-.39E-6,0
BEIDOU-3 M9 (C29),2018-029A,2026-06-05T03:15:11.757600,1.86228436,.000084,54.2057,300.3710,140.8471,219.1477,0,U,43245,999,5567,0,-.56E-6,0
BEIDOU-3 M10 (C30),2018-029B,2026-06-05T01:40:45.655104,1.86229565,.0004139,54.2026,300.3989,39.5125,320.5060,0,U,43246,999,5565,0,-.56E-6,0
IRNSS-1I,2018-035A,2026-06-03T20:42:40.244256,1.00268957,.0018238,28.7232,74.4103,238.1364,305.5602,0,U,43286,999,2994,0,.83E-6,0
COSMOS 2527 (756),2018-053A,2026-06-03T11:25:32.579328,2.13102282,.00073854,65.5707,74.3639,242.6026,117.3366,0,U,43508,999,6198,0,-.13E-6,0
GSAT0221 (GALILEO 25),2018-060A,2026-06-04T17:55:17.745024,1.70476097,.00027803,57.1754,342.1162,310.8178,49.1700,0,U,43564,999,4895,0,-.7E-6,0
GSAT0222 (GALILEO 26),2018-060B,2026-06-05T13:16:15.388896,1.70475837,.0001826,57.1805,342.0983,256.8632,103.1289,0,U,43565,999,4901,0,-.67E-6,0
GSAT0219 (GALILEO 23),2018-060C,2026-06-04T00:20:19.120416,1.70476084,.00023501,57.1765,342.1411,331.7106,28.2884,0,U,43566,999,4896,0,-.72E-6,0
GSAT0220 (GALILEO 24),2018-060D,2026-06-05T09:47:53.384064,1.70476048,.000233,57.1764,342.1042,321.7709,38.2250,0,U,43567,999,4897,0,-.68E-6,0
BEIDOU-3 M5 (C23),2018-062A,2026-06-05T07:03:29.863296,1.86228902,.0005508,54.0850,182.7082,289.5466,70.4498,0,U,43581,999,5341,0,.76E-6,0
BEIDOU-3 M6 (C24),2018-062B,2026-06-05T03:46:49.069632,1.86228010,.0004838,54.0845,182.7022,12.0882,347.9796,0,U,43582,999,5341,0,.75E-6,0
BEIDOU-3 M12 (C26),2018-067A,2026-06-05T02:18:06.774336,1.86227933,.00078029,54.1794,181.4501,30.5726,329.5272,0,U,43602,999,5289,0,.75E-6,0
BEIDOU-3 M11 (C25),2018-067B,2026-06-05T05:32:33.210816,1.86227380,.00044885,54.1770,181.4093,14.1662,345.9003,0,U,43603,999,5292,0,.77E-6,0
BEIDOU-3 M13 (C32),2018-072A,2026-06-05T04:27:38.188224,1.86231577,.0007707,56.6148,63.0554,325.9899,33.9882,0,U,43622,999,5243,0,-.39E-6,0
BEIDOU-3 M14 (C33),2018-072B,2026-06-05T01:13:53.097600,1.86231360,.0006242,56.6159,63.0546,357.9407,2.0840,0,U,43623,999,5242,0,-.4E-6,0
BEIDOU-3 M16 (C35),2018-078A,2026-06-04T16:04:35.040000,1.86232405,.00074205,54.1020,300.4249,40.6792,319.3633,0,U,43647,999,5192,0,-.57E-6,0
BEIDOU-3 M15 (C34),2018-078B,2026-06-01T13:51:31.248864,1.86232507,.00045363,54.1007,300.5335,56.3394,303.6792,0,U,43648,999,5188,0,-.74E-6,0
COSMOS 2529 (757),2018-086A,2026-06-05T10:47:34.950912,2.13102149,.0011692,64.2941,192.9908,256.2309,103.7093,0,U,43687,999,5903,0,.7E-6,0
BEIDOU-3 M17 (C36),2018-093A,2026-06-03T14:55:08.731776,1.86228565,.0009972,54.1684,182.7566,291.4336,250.9335,0,U,43706,999,5128,0,.67E-6,0
BEIDOU-3 M18 (C37),2018-093B,2026-06-05T08:39:22.675968,1.86226697,.0007759,54.1691,182.6896,321.2848,38.7154,0,U,43707,999,5131,0,.77E-6,0
BEIDOU-3 IGSO-1 (C38),2019-023A,2026-06-04T14:06:37.446624,1.00295778,.00254705,58.6768,37.7810,225.7549,318.3782,0,U,44204,999,708,0,-.211E-5,0
